COMMENT,ORIGINATOR,NORAD_CAT_ID,OBJECT_NAME,OBJECT_TYPE,CLASSIFICATION_TYPE,INTLDES,EPOCH,EPOCH_MICROSECONDS,MEAN_MOTION,ECCENTRICITY,INCLINATION,RA_OF_ASC_NODE,ARG_OF_PERICENTER,MEAN_ANOMALY,EPHEMERIS_TYPE,ELEMENT_SET_NO,REV_AT_EPOCH,BSTAR,MEAN_MOTION_DOT,MEAN_MOTION_DDOT,FILE,TLE_LINE0,TLE_LINE1,TLE_LINE2,OBJECT_ID,OBJECT_NUMBER,SEMIMAJOR_AXIS,PERIOD,APOGEE,PERIGEE,DECAYED
"GENERATED VIA SPACETRACK.ORG API","18 SPCS","48896","SPACEBEE-105","PAYLOAD","U","21059T","2022-10-28 20:48:26","830080","15.1859803","0.0008098","97.5722","71.0537","359.2731","0.849","0","999","7415","0.00070311","0.00014503","0","3637205","0 SPACEBEE-105","1 48896U 21059T   22301.86697720  .00014503  00000-0  70311-3 0  9993","2 48896  97.5722  71.0537 0008098 359.2731   0.8490 15.18598030 74155","2021-059T","48896","6888.214","94.824","515.657","504.501","0"
"GENERATED VIA SPACETRACK.ORG API","18 SPCS","48896","SPACEBEE-105","PAYLOAD","U","21059T","2022-10-29 07:52:38","41248","15.18616705","0.0008121","97.5723","71.5156","357.5019","2.6173","0","999","7422","0.00084555","0.00017472","0","3637424","0 SPACEBEE-105","1 48896U 21059T   22302.32821807  .00017472  00000-0  84555-3 0  9993","2 48896  97.5723  71.5156 0008121 357.5019   2.6173 15.18616705 74221","2021-059T","48896","6888.157","94.823","515.616","504.428","0"
"GENERATED VIA SPACETRACK.ORG API","18 SPCS","48896","SPACEBEE-105","PAYLOAD","U","21059T","2022-10-29 20:31:41","736288","15.18637406","0.0008107","97.5722","72.0435","355.3929","4.7229","0","999","7430","0.00092446","0.00019124","0","3637579","0 SPACEBEE-105","1 48896U 21059T   22302.85534417  .00019124  00000-0  92446-3 0  9993","2 48896  97.5722  72.0435 0008107 355.3929   4.7229 15.18637406 74301","2021-059T","48896","6888.095","94.822","515.544","504.376","0"
"GENERATED VIA SPACETRACK.ORG API","18 SPCS","48896","SPACEBEE-105","PAYLOAD","U","21059T","2022-10-29 20:31:41","736288","15.18637406","0.0008107","97.5722","72.0435","355.3929","4.7229","0","999","7430","0.00092446","0.00019124","0","3637863","0 SPACEBEE-105","1 48896U 21059T   22302.85534417  .00019124  00000-0  92446-3 0  9993","2 48896  97.5722  72.0435 0008107 355.3929   4.7229 15.18637406 74301","2021-059T","48896","6888.095","94.822","515.544","504.376","0"
"GENERATED VIA SPACETRACK.ORG API","18 SPCS","48896","SPACEBEE-105","PAYLOAD","U","21059T","2022-10-30 07:35:51","946944","15.18653877","0.0008132","97.5721","72.5054","353.5384","6.5744","0","999","7437","0.00085308","0.00017647","0","3637867","0 SPACEBEE-105","1 48896U 21059T   22303.31657346  .00017647  00000-0  85308-3 0  9999","2 48896  97.5721  72.5054 0008132 353.5384   6.5744 15.18653877 74374","2021-059T","48896","6888.045","94.821","515.511","504.309","0"
"GENERATED VIA SPACETRACK.ORG API","18 SPCS","48896","SPACEBEE-105","PAYLOAD","U","21059T","2022-10-30 20:14:54","456576","15.1867659","0.0008131","97.5719","73.0332","351.6572","8.4526","0","999","7445","0.00093224","0.00019308","0","3637924","0 SPACEBEE-105","1 48896U 21059T   22303.84368584  .00019308  00000-0  93224-3 0  9992","2 48896  97.5719  73.0332 0008131 351.6572   8.4526 15.18676590 74458","2021-059T","48896","6887.976","94.819","515.442","504.241","0"
"GENERATED VIA SPACETRACK.ORG API","18 SPCS","48896","SPACEBEE-105","PAYLOAD","U","21059T","2022-10-31 08:53:56","449536","15.18693755","0.0008068","97.572","73.561","350.2446","9.863","0","999","7453","0.0008418","0.00017432","0","3638016","0 SPACEBEE-105","1 48896U 21059T   22304.37079224  .00017432  00000-0  84180-3 0  9998","2 48896  97.5720  73.5610 0008068 350.2446   9.8630 15.18693755 74530","2021-059T","48896","6887.924","94.818","515.347","504.232","0"
"GENERATED VIA SPACETRACK.ORG API","18 SPCS","48896","SPACEBEE-105","PAYLOAD","U","21059T","2022-11-01 08:37:06","56832","15.18729202","0.0008046","97.5717","74.5507","347.011","13.0916","0","999","7468","0.00078989","0.00016367","0","3640409","0 SPACEBEE-105","1 48896U 21059T   22305.35909788  .00016367  00000-0  78989-3 0  9990","2 48896  97.5717  74.5507 0008046 347.0110  13.0916 15.18729202 74687","2021-059T","48896","6887.817","94.816","515.224","504.140","0"
"GENERATED VIA SPACETRACK.ORG API","18 SPCS","48896","SPACEBEE-105","PAYLOAD","U","21059T","2022-11-01 22:50:58","838496","15.18751508","0.0007983","97.5716","75.1445","345.025","15.0747","0","999","7477","0.00081814","0.00016967","0","3640698","0 SPACEBEE-105","1 48896U 21059T   22305.95206989  .00016967  00000-0  81814-3 0  9996","2 48896  97.5716  75.1445 0007983 345.0250  15.0747 15.18751508 74774","2021-059T","48896","6887.750","94.815","515.113","504.116","0"
"GENERATED VIA SPACETRACK.ORG API","18 SPCS","48896","SPACEBEE-105","PAYLOAD","U","21059T","2022-11-02 08:20:13","638048","15.18764952","0.0007963","97.5716","75.5403","343.5801","16.5174","0","999","7483","0.00078288","0.00016238","0","3642416","0 SPACEBEE-105","1 48896U 21059T   22306.34738007  .00016238  00000-0  78288-3 0  9993","2 48896  97.5716  75.5403 0007963 343.5801  16.5174 15.18764952 74839","2021-059T","48896","6887.709","94.814","515.059","504.089","0"
"GENERATED VIA SPACETRACK.ORG API","18 SPCS","48896","SPACEBEE-105","PAYLOAD","U","21059T","2022-11-03 08:03:19","235520","15.18802853","0.0007925","97.5712","76.5301","340.262","19.8306","0","999","7498","0.00088471","0.00018384","0","3643544","0 SPACEBEE-105","1 48896U 21059T   22307.33563930  .00018384  00000-0  88471-3 0  9993","2 48896  97.5712  76.5301 0007925 340.2620  19.8306 15.18802853 74986","2021-059T","48896","6887.595","94.812","514.918","504.001","0"
"GENERATED VIA SPACETRACK.ORG API","18 SPCS","48896","SPACEBEE-105","PAYLOAD","U","21059T","2022-11-03 08:03:19","235520","15.18802853","0.0007925","97.5712","76.5301","340.262","19.8306","0","999","7498","0.00088471","0.00018384","0","3643813","0 SPACEBEE-105","1 48896U 21059T   22307.33563930  .00018384  00000-0  88471-3 0  9993","2 48896  97.5712  76.5301 0007925 340.2620  19.8306 15.18802853 74986","2021-059T","48896","6887.595","94.812","514.918","504.001","0"
"GENERATED VIA SPACETRACK.ORG API","18 SPCS","48896","SPACEBEE-105","PAYLOAD","U","21059T","2022-11-03 19:07:25","24224","15.18825887","0.0007887","97.571","76.9919","338.4555","21.6346","0","999","7505","0.0010595","0.00022056","0","3644033","0 SPACEBEE-105","1 48896U 21059T   22307.79681741  .00022056  00000-0  10595-2 0  9996","2 48896  97.5710  76.9919 0007887 338.4555  21.6346 15.18825887 75052","2021-059T","48896","6887.525","94.810","514.822","503.958","0"
"GENERATED VIA SPACETRACK.ORG API","18 SPCS","48896","SPACEBEE-105","PAYLOAD","U","21059T","2022-11-04 07:46:22","329984","15.18852282","0.0007792","97.571","77.5196","336.3564","23.7311","0","999","7513","0.0011294","0.00023537","0","3644631","0 SPACEBEE-105","1 48896U 21059T   22308.32386956  .00023537  00000-0  11294-2 0  9998","2 48896  97.5710  77.5196 0007792 336.3564  23.7311 15.18852282 75131","2021-059T","48896","6887.445","94.808","514.677","503.943","0"
"GENERATED VIA SPACETRACK.ORG API","18 SPCS","48896","SPACEBEE-105","PAYLOAD","U","21059T","2022-11-04 07:46:22","329984","15.18852282","0.0007792","97.571","77.5196","336.3564","23.7311","0","999","7513","0.0011294","0.00023537","0","3644787","0 SPACEBEE-105","1 48896U 21059T   22308.32386956  .00023537  00000-0  11294-2 0  9998","2 48896  97.5710  77.5196 0007792 336.3564  23.7311 15.18852282 75131","2021-059T","48896","6887.445","94.808","514.677","503.943","0"
"GENERATED VIA SPACETRACK.ORG API","18 SPCS","48896","SPACEBEE-105","PAYLOAD","U","21059T","2022-11-05 07:29:22","939584","15.18892434","0.0007727","97.5718","78.5102","332.5881","27.4945","0","999","7528","0.00091333","0.00019031","0","3645109","0 SPACEBEE-105","1 48896U 21059T   22309.31207106  .00019031  00000-0  91333-3 0  9994","2 48896  97.5718  78.5102 0007727 332.5881  27.4945 15.18892434 75288","2021-059T","48896","6887.324","94.806","514.511","503.867","0"
"GENERATED VIA SPACETRACK.ORG API","18 SPCS","48896","SPACEBEE-105","PAYLOAD","U","21059T","2022-11-05 07:29:22","939584","15.18892434","0.0007727","97.5718","78.5102","332.5881","27.4945","0","999","7528","0.00091333","0.00019031","0","3646249","0 SPACEBEE-105","1 48896U 21059T   22309.31207106  .00019031  00000-0  91333-3 0  9994","2 48896  97.5718  78.5102 0007727 332.5881  27.4945 15.18892434 75288","2021-059T","48896","6887.324","94.806","514.511","503.867","0"
"GENERATED VIA SPACETRACK.ORG API","18 SPCS","48896","SPACEBEE-105","PAYLOAD","U","21059T","2022-11-06 08:47:13","169760","15.18931225","0.0007653","97.5723","79.5665","329.2116","30.8668","0","999","7544","0.00072821","0.00015168","0","3646913","0 SPACEBEE-105","1 48896U 21059T   22310.36612465  .00015168  00000-0  72821-3 0  9997","2 48896  97.5723  79.5665 0007653 329.2116  30.8668 15.18931225 75441","2021-059T","48896","6887.206","94.804","514.342","503.801","0"
"GENERATED VIA SPACETRACK.ORG API","18 SPCS","48896","SPACEBEE-105","PAYLOAD","U","21059T","2022-11-06 08:47:13","169760","15.18931225","0.0007653","97.5723","79.5665","329.2116","30.8668","0","999","7544","0.00072821","0.00015168","0","3647066","0 SPACEBEE-105","1 48896U 21059T   22310.36612465  .00015168  00000-0  72821-3 0  9997","2 48896  97.5723  79.5665 0007653 329.2116  30.8668 15.18931225 75441","2021-059T","48896","6887.206","94.804","514.342","503.801","0"
"GENERATED VIA SPACETRACK.ORG API","18 SPCS","48896","SPACEBEE-105","PAYLOAD","U","21059T","2022-11-07 14:49:36","215328","15.18975144","0.0007618","97.5728","80.8208","324.4335","35.639","0","999","7563","0.00082681","0.00017258","0","3648031","0 SPACEBEE-105","1 48896U 21059T   22311.61778027  .00017258  00000-0  82681-3 0  9990","2 48896  97.5728  80.8208 0007618 324.4335  35.6390 15.18975144 75639","2021-059T","48896","6887.074","94.801","514.185","503.692","0"
